[{"OBJECT_NAME":"STARLINK-30533","OBJECT_ID":"2023-156K","EPOCH":"2026-03-09T13:37:37.629696","MEAN_MOTION":15.30188896,"ECCENTRICITY":0.0001151,"INCLINATION":53.1581,"RA_OF_ASC_NODE":168.7677,"ARG_OF_PERICENTER":90.523,"MEAN_ANOMALY":269.5902,"EPHEMERIS_TYPE":0,"CLASSIFICATION_TYPE":"U","NORAD_CAT_ID":58037,"ELEMENT_SET_NO":999,"REV_AT_EPOCH":13501,"BSTAR":0.00069771,"MEAN_MOTION_DOT":0.00020354,"MEAN_MOTION_DDOT":0},{"OBJECT_NAME":"JINJUSAT-1B","OBJECT_ID":"2025-052A","EPOCH":"2026-03-09T15:55:38.242848","MEAN_MOTION":15.30194857,"ECCENTRICITY":0.00055504,"INCLINATION":97.4113,"RA_OF_ASC_NODE":325.4613,"ARG_OF_PERICENTER":82.193,"MEAN_ANOMALY":277.9941,"EPHEMERIS_TYPE":0,"CLASSIFICATION_TYPE":"U","NORAD_CAT_ID":63210,"ELEMENT_SET_NO":999,"REV_AT_EPOCH":5486,"BSTAR":0.00068430401,"MEAN_MOTION_DOT":0.00019955,"MEAN_MOTION_DDOT":0}]
